{
"type": "FeatureCollection",
"name": "cordon",
"crs": { "type": "name", "properties": { "name": "urn:ogc:def:crs:EPSG::2193" } },
"features": [
{ "type": "Feature", "properties": { "name": "Auckland City Centre" }, "geometry": { "type": "Polygon", "coordinates": [ [ [ 1758122.752299999818206, 5920038.017199999652803 ], [ 1758117.292700000107288, 5920033.5334 ], [ 1758104.885499999858439, 5920005.4846 ], [ 1758079.423600000329316, 5919970.754099999554455 ], [ 1758056.934899999760091, 5919946.279299999587238 ], [ 1758033.122600000351667, 5919924.451100000180304 ], [ 1757998.064799999818206, 5919899.64670000039041 ], [ 1757944.816100000403821, 5919867.236200000159442 ], [ 1757868.400399999693036, 5919829.160799999721348 ], [ 1757867.129999999888241, 5919849.1277 ], [ 1757864.2506, 5919885.4358 ], [ 1757860.988900000229478, 5919918.926400000229478 ], [ 1757846.360299999825656, 5919917.6365 ], [ 1757843.5932, 5919917.439899999648333 ], [ 1757843.05460000038147, 5919915.8092 ], [ 1757842.355399999767542, 5919906.960099999792874 ], [ 1757841.238599999807775, 5919905.254999999888241 ], [ 1757839.674200000241399, 5919901.849100000225008 ], [ 1757835.096400000154972, 5919893.543499999679625 ], [ 1757830.173600000329316, 5919884.582299999892712 ], [ 1757827.854899999685585, 5919880.587299999780953 ], [ 1757827.770499999634922, 5919880.446399999782443 ], [ 1757826.4391, 5919878.227400000207126 ], [ 1757820.9271, 5919869.240000000223517 ], [ 1757820.095800000242889, 5919866.736100000329316 ], [ 1757814.666899999603629, 5919859.017900000326335 ], [ 1757813.718299999833107, 5919857.4836 ], [ 1757813.319199999794364, 5919856.878700000233948 ], [ 1757811.673700000159442, 5919858.244699999690056 ], [ 1757795.272300000302494, 5919836.211500000208616 ], [ 1757796.942599999718368, 5919834.822800000198185 ], [ 1757778.978400000371039, 5919813.232800000347197 ], [ 1757774.111100000329316, 5919812.878999999724329 ], [ 1757770.826000000350177, 5919808.63190000038594 ], [ 1757761.479000000283122, 5919796.269500000402331 ], [ 1757754.604899999685585, 5919787.251899999566376 ], [ 1757734.434100000187755, 5919803.64049999974668 ], [ 1757686.092199999839067, 5919802.168399999849498 ], [ 1757691.465200000442564, 5919786.810499999672174 ], [ 1757694.7544, 5919771.302500000223517 ], [ 1757695.7303, 5919759.8679 ], [ 1757695.576299999840558, 5919747.38329999987036 ], [ 1757693.706299999728799, 5919737.029799999669194 ], [ 1757691.505900000222027, 5919723.443699999712408 ], [ 1757686.940899999812245, 5919710.354500000365078 ], [ 1757686.129800000227988, 5919708.619599999859929 ], [ 1757679.9698, 5919696.649500000290573 ], [ 1757657.623200000263751, 5919661.929700000211596 ], [ 1757624.938, 5919614.170099999755621 ], [ 1757610.614299999549985, 5919593.675900000147521 ], [ 1757582.329, 5919553.599899999797344 ], [ 1757548.971699999645352, 5919507.14740000013262 ], [ 1757534.534400000236928, 5919485.556300000287592 ], [ 1757458.736100000329316, 5919376.324900000356138 ], [ 1757428.363199999555945, 5919332.682 ], [ 1757419.314399999566376, 5919319.8383 ], [ 1757380.270100000314415, 5919264.517400000244379 ], [ 1757377.600399999879301, 5919260.649000000208616 ], [ 1757226.4446, 5919375.807500000111759 ], [ 1757214.5422, 5919381.794800000265241 ], [ 1757202.735999999567866, 5919357.5817 ], [ 1757119.286000000312924, 5919186.518199999816716 ], [ 1757110.443199999630451, 5919168.390700000338256 ], [ 1757079.187400000169873, 5919187.111499999649823 ], [ 1757030.046699999831617, 5919210.207399999722838 ], [ 1756989.237499999813735, 5919225.372000000439584 ], [ 1756983.54079999960959, 5919227.488900000229478 ], [ 1756940.726700000464916, 5919239.96100000012666 ], [ 1756900.821700000204146, 5919246.974899999797344 ], [ 1756865.559399999678135, 5919252.545099999755621 ], [ 1756819.050699999555945, 5919256.870299999602139 ], [ 1756815.605200000107288, 5919257.1058 ], [ 1756795.361600000411272, 5919258.4331 ], [ 1756768.9847999997437, 5919259.403599999845028 ], [ 1756751.347699999809265, 5919261.286000000312924 ], [ 1756738.906499999575317, 5919262.613699999637902 ], [ 1756523.8821, 5919089.129200000315905 ], [ 1756449.517900000326335, 5919032.2637 ], [ 1756385.3426, 5918984.25719999987632 ], [ 1756368.295400000177324, 5919017.6305 ], [ 1756359.686099999584258, 5919034.268899999558926 ], [ 1756355.309299999848008, 5919042.727400000207126 ], [ 1756338.32079999987036, 5919075.559299999848008 ], [ 1756335.338499999605119, 5919081.592299999669194 ], [ 1756321.1135, 5919109.054999999701977 ], [ 1756302.082399999722838, 5919145.79619999974966 ], [ 1756276.3827, 5919190.343100000172853 ], [ 1756268.86699999962002, 5919212.731200000271201 ], [ 1756246.502299999818206, 5919257.198200000450015 ], [ 1756079.598500000312924, 5919373.11849999986589 ], [ 1756097.8854, 5919379.123999999836087 ], [ 1756105.499200000427663, 5919382.704699999652803 ], [ 1756257.688500000163913, 5919454.277499999850988 ], [ 1756272.597099999897182, 5919460.440899999812245 ], [ 1756305.731300000101328, 5919469.887500000186265 ], [ 1756335.665, 5919478.947700000368059 ], [ 1756427.722900000400841, 5919506.811499999836087 ], [ 1756468.308500000275671, 5919518.527800000272691 ], [ 1756488.24959999974817, 5919524.559100000187755 ], [ 1756487.2982, 5919535.135300000198185 ], [ 1756488.475599999539554, 5919556.2538 ], [ 1756490.841, 5919577.067699999548495 ], [ 1756494.268000000156462, 5919598.452100000344217 ], [ 1756499.409400000236928, 5919618.983799999579787 ], [ 1756505.296500000171363, 5919637.463399999774992 ], [ 1756513.009100000374019, 5919657.245000000111759 ], [ 1756522.422600000165403, 5919676.562400000169873 ], [ 1756525.5296, 5919682.4836 ], [ 1756523.525399999693036, 5919683.754200000315905 ], [ 1756521.197599999606609, 5919685.11089999973774 ], [ 1756549.965400000102818, 5919746.035699999891222 ], [ 1756557.737499999813735, 5919761.083999999798834 ], [ 1756561.706000000238419, 5919776.7939 ], [ 1756566.33600000012666, 5919798.787700000219047 ], [ 1756568.816100000403821, 5919816.812699999660254 ], [ 1756569.0778, 5919846.371899999678135 ], [ 1756566.101300000213087, 5919866.877100000157952 ], [ 1756560.187300000339746, 5919887.221 ], [ 1756551.257799999788404, 5919907.0647 ], [ 1756542.526600000448525, 5919924.130300000309944 ], [ 1756527.246899999678135, 5919948.537999999709427 ], [ 1756514.943, 5919970.565399999730289 ], [ 1756488.204400000162423, 5919978.894399999640882 ], [ 1756482.371500000357628, 5919986.201500000432134 ], [ 1756471.752500000409782, 5919996.711500000208616 ], [ 1756489.3311, 5919998.28000000026077 ], [ 1756499.793700000271201, 5919999.296900000423193 ], [ 1756573.769799999892712, 5920007.147599999792874 ], [ 1756574.57660000026226, 5920007.717299999669194 ], [ 1756538.017099999822676, 5920066.100399999879301 ], [ 1756509.28249999973923, 5920111.987700000405312 ], [ 1756471.933199999853969, 5920173.415 ], [ 1756440.85259999986738, 5920223.549100000411272 ], [ 1756365.96059999987483, 5920338.674599999561906 ], [ 1756336.928100000135601, 5920349.264499999582767 ], [ 1756329.345700000412762, 5920378.1963 ], [ 1756325.2856, 5920394.620400000363588 ], [ 1756323.0877, 5920408.825899999588728 ], [ 1756318.954, 5920435.650399999693036 ], [ 1756318.440899999812245, 5920439.686599999666214 ], [ 1756317.557400000281632, 5920446.790900000371039 ], [ 1756316.543499999679625, 5920455.628499999642372 ], [ 1756315.6206, 5920463.673600000329316 ], [ 1756314.917600000277162, 5920469.801699999719858 ], [ 1756313.854799999855459, 5920484.9238 ], [ 1756312.761800000444055, 5920500.478000000119209 ], [ 1756310.4062, 5920544.892 ], [ 1756205.1272, 5920546.368800000287592 ], [ 1756132.8202, 5920539.18680000025779 ], [ 1756131.4233, 5920552.1338 ], [ 1756131.387900000438094, 5920558.1349 ], [ 1756132.338200000114739, 5920563.245000000111759 ], [ 1756134.623800000175834, 5920568.898699999786913 ], [ 1756155.489699999801815, 5920610.128499999642372 ], [ 1756183.2653, 5920662.365600000135601 ], [ 1756229.348299999721348, 5920747.803600000217557 ], [ 1756234.694799999706447, 5920757.715900000184774 ], [ 1756277.0959, 5920842.218100000172853 ], [ 1756270.303000000305474, 5920856.4534 ], [ 1756256.79839999973774, 5920876.044099999591708 ], [ 1756240.87459999974817, 5920892.4676 ], [ 1756182.7412, 5920939.755599999800324 ], [ 1756192.372999999672174, 5920967.785299999639392 ], [ 1756194.950199999846518, 5920975.129300000146031 ], [ 1756194.972199999727309, 5920975.1919 ], [ 1756196.774299999698997, 5920984.4397 ], [ 1756178.782599999569356, 5920998.72719999961555 ], [ 1756194.900399999693036, 5921034.286999999545515 ], [ 1756208.944899999536574, 5921066.989500000141561 ], [ 1756225.71239999961108, 5921061.4046 ], [ 1756263.127000000327826, 5921167.943799999542534 ], [ 1756263.332499999552965, 5921168.528300000354648 ], [ 1756280.304700000211596, 5921216.827100000344217 ], [ 1756278.193699999712408, 5921217.568699999712408 ], [ 1756287.928600000217557, 5921245.274400000460446 ], [ 1756292.855499999597669, 5921259.2917 ], [ 1756297.779500000178814, 5921273.307199999690056 ], [ 1756307.630400000140071, 5921301.341900000348687 ], [ 1756307.961400000378489, 5921302.2829 ], [ 1756327.285500000230968, 5921357.276999999769032 ], [ 1756338.537499999627471, 5921389.299700000323355 ], [ 1756342.682699999772012, 5921401.0581 ], [ 1756343.354799999855459, 5921403.004599999636412 ], [ 1756352.997399999760091, 5921430.4474 ], [ 1756360.646300000138581, 5921427.7544 ], [ 1756362.12569999974221, 5921427.2741 ], [ 1756366.267900000326335, 5921438.818 ], [ 1756368.92119999974966, 5921446.21239999961108 ], [ 1756369.869099999777973, 5921448.8438 ], [ 1756376.7483, 5921468.043200000189245 ], [ 1756378.653599999845028, 5921473.352099999785423 ], [ 1756381.994599999859929, 5921482.678000000305474 ], [ 1756387.945299999788404, 5921480.611700000241399 ], [ 1756390.467000000178814, 5921479.734899999573827 ], [ 1756424.105399999767542, 5921515.563799999654293 ], [ 1756428.9244, 5921520.691499999724329 ], [ 1756435.7664, 5921527.979500000365078 ], [ 1756439.878999999724329, 5921532.363599999807775 ], [ 1756450.316599999554455, 5921543.4847999997437 ], [ 1756453.844700000248849, 5921540.17 ], [ 1756455.870500000193715, 5921538.268299999646842 ], [ 1756459.458499999716878, 5921534.900700000114739 ], [ 1756475.4265, 5921551.907700000330806 ], [ 1756480.3185, 5921557.119099999777973 ], [ 1756490.749900000169873, 5921568.227300000376999 ], [ 1756501.17989999987185, 5921579.33739999961108 ], [ 1756510.251199999824166, 5921588.9945 ], [ 1756511.610000000335276, 5921590.447499999776483 ], [ 1756520.362800000235438, 5921599.764600000344217 ], [ 1756522.04009999986738, 5921601.5576 ], [ 1756523.512699999846518, 5921603.1305 ], [ 1756524.677500000223517, 5921604.3854 ], [ 1756528.9156, 5921608.876299999654293 ], [ 1756529.534400000236928, 5921609.538200000301003 ], [ 1756532.471699999645352, 5921612.6694 ], [ 1756536.388799999840558, 5921616.84250000026077 ], [ 1756536.916500000283122, 5921617.4063 ], [ 1756541.934299999848008, 5921622.746600000187755 ], [ 1756542.9019, 5921623.779500000178814 ], [ 1756551.25719999987632, 5921632.659900000318885 ], [ 1756553.332100000232458, 5921634.889499999582767 ], [ 1756554.69579999987036, 5921636.366399999707937 ], [ 1756563.762199999764562, 5921645.99959999974817 ], [ 1756564.474999999627471, 5921646.7615 ], [ 1756574.192499999888241, 5921657.1096 ], [ 1756584.6228, 5921668.219499999657273 ], [ 1756595.05449999962002, 5921679.3295 ], [ 1756605.4847999997437, 5921690.439500000327826 ], [ 1756615.91509999986738, 5921701.549499999731779 ], [ 1756626.345499999821186, 5921712.659400000236928 ], [ 1756636.775899999774992, 5921723.769399999640882 ], [ 1756647.206299999728799, 5921734.879300000146031 ], [ 1756655.113099999725819, 5921743.288800000213087 ], [ 1756657.636699999682605, 5921745.989199999719858 ], [ 1756668.067300000227988, 5921757.1009 ], [ 1756678.4978, 5921768.210799999535084 ], [ 1756688.928299999795854, 5921779.3207 ], [ 1756699.3574, 5921790.432500000111759 ], [ 1756709.786399999633431, 5921801.544200000353158 ], [ 1756703.712299999780953, 5921807.247600000351667 ], [ 1756778.0334, 5921817.7719 ], [ 1756812.55599999986589, 5921821.725599999539554 ], [ 1756873.6255, 5921828.719700000248849 ], [ 1756925.7006, 5921779.708800000138581 ], [ 1756924.8766, 5921777.188 ], [ 1756920.246600000187755, 5921772.2588 ], [ 1756952.184299999848008, 5921742.8722 ], [ 1756670.674800000153482, 5921436.078499999828637 ], [ 1756639.7983, 5921402.206600000150502 ], [ 1756644.645399999804795, 5921401.340599999763072 ], [ 1756654.612599999643862, 5921398.519600000232458 ], [ 1756674.480100000277162, 5921392.877000000327826 ], [ 1756690.070000000298023, 5921385.76659999974072 ], [ 1756695.722799999639392, 5921377.216900000348687 ], [ 1756695.936499999836087, 5921373.79839999973774 ], [ 1756728.029699999839067, 5921362.690499999560416 ], [ 1756731.219700000248849, 5921365.892799999564886 ], [ 1756738.314799999818206, 5921368.745799999684095 ], [ 1756748.259700000286102, 5921365.925099999643862 ], [ 1756751.1151, 5921357.410199999809265 ], [ 1756751.806300000287592, 5921354.4934 ], [ 1756803.278599999845028, 5921336.917100000195205 ], [ 1756912.693799999542534, 5921456.26549999974668 ], [ 1757116.571600000374019, 5921385.896800000220537 ], [ 1757101.739, 5921338.893400000408292 ], [ 1757087.345599999651313, 5921344.502600000239909 ], [ 1757094.753999999724329, 5921365.140100000426173 ], [ 1756975.162100000306964, 5921405.886099999770522 ], [ 1756884.727699999697506, 5921309.900500000454485 ], [ 1756881.030799999833107, 5921305.9825 ], [ 1756857.286000000312924, 5921280.768000000156462 ], [ 1756854.090099999681115, 5921276.92200000025332 ], [ 1756851.558899999596179, 5921272.8383 ], [ 1756849.472699999809265, 5921268.217199999839067 ], [ 1756806.2873, 5921145.3388 ], [ 1756804.292899999767542, 5921144.410000000149012 ], [ 1756744.4079, 5921165.267199999652803 ], [ 1756734.647099999710917, 5921169.322800000198185 ], [ 1756713.887400000356138, 5921111.089800000190735 ], [ 1756702.360399999655783, 5921078.7549 ], [ 1756711.796299999579787, 5921074.957700000144541 ], [ 1756712.5674, 5921074.688299999572337 ], [ 1756792.8136, 5921046.745699999853969 ], [ 1756793.5965, 5921046.470499999821186 ], [ 1756793.757500000298023, 5921046.413800000213087 ], [ 1756784.536600000225008, 5921019.931900000199676 ], [ 1756773.447800000198185, 5920988.085199999623001 ], [ 1756763.9358, 5920960.766200000420213 ], [ 1756753.129499999806285, 5920929.758600000292063 ], [ 1756732.224999999627471, 5920869.783599999733269 ], [ 1756750.977300000376999, 5920862.827499999664724 ], [ 1756751.199900000356138, 5920862.5663 ], [ 1756754.5735, 5920858.54590000025928 ], [ 1756786.896099999547005, 5920864.369400000199676 ], [ 1756796.629099999554455, 5920866.139499999582767 ], [ 1756832.542600000277162, 5920977.013299999758601 ], [ 1756850.4693, 5921026.692800000309944 ], [ 1756851.839200000278652, 5921026.1776 ], [ 1756865.616600000299513, 5921021.436499999836087 ], [ 1756914.3306, 5921064.144299999810755 ], [ 1756919.007299999706447, 5921068.244 ], [ 1756919.315600000321865, 5921068.513899999670684 ], [ 1756966.065700000151992, 5921109.332100000232458 ], [ 1757046.909099999815226, 5921081.303899999707937 ], [ 1757047.534300000406802, 5921083.044099999591708 ], [ 1757047.5938, 5921083.2039 ], [ 1757063.314399999566376, 5921127.162899999879301 ], [ 1757066.358900000341237, 5921128.682699999772012 ], [ 1757153.947499999776483, 5921098.085699999704957 ], [ 1757196.054399999789894, 5921083.3969 ], [ 1757203.615899999625981, 5921080.75650000013411 ], [ 1757210.3695, 5921098.372499999590218 ], [ 1757229.658599999733269, 5921148.669099999591708 ], [ 1757102.015999999828637, 5921193.155299999751151 ], [ 1757087.75899999961257, 5921198.123999999836087 ], [ 1757093.9161, 5921215.814000000245869 ], [ 1757071.506699999794364, 5921222.164900000207126 ], [ 1757066.298999999649823, 5921204.6831 ], [ 1757056.170800000429153, 5921207.487200000323355 ], [ 1756959.9863, 5921234.11670000012964 ], [ 1756956.658599999733269, 5921237.3087 ], [ 1756956.142699999734759, 5921237.803600000217557 ], [ 1756954.656700000166893, 5921242.9233 ], [ 1756955.9222, 5921248.1014 ], [ 1756979.675599999725819, 5921273.369099999777973 ], [ 1756980.404900000430644, 5921273.8268 ], [ 1756987.930200000293553, 5921278.549700000323355 ], [ 1757088.3564, 5921242.700899999588728 ], [ 1757088.832600000314415, 5921236.509700000286102 ], [ 1757099.9452, 5921232.3821 ], [ 1757102.326399999670684, 5921236.192099999636412 ], [ 1757204.402900000102818, 5921200.155799999833107 ], [ 1757209.0066, 5921204.283300000242889 ], [ 1757219.735999999567866, 5921340.304700000211596 ], [ 1757150.996000000275671, 5921365.778400000184774 ], [ 1757154.099399999715388, 5921373.7955 ], [ 1757250.165500000119209, 5921340.699900000356138 ], [ 1757249.769999999552965, 5921334.265599999576807 ], [ 1757261.404799999669194, 5921332.99280000012368 ], [ 1757255.3723, 5921289.019000000320375 ], [ 1757248.8635, 5921290.28899999987334 ], [ 1757241.931400000117719, 5921206.759800000116229 ], [ 1757295.7357, 5921186.5532 ], [ 1757410.71889999974519, 5921516.574300000444055 ], [ 1757416.695299999788404, 5921519.4474 ], [ 1757488.689000000245869, 5921494.297899999655783 ], [ 1757491.6097, 5921488.383899999782443 ], [ 1757393.807199999690056, 5921207.7045 ], [ 1757391.323699999600649, 5921196.2434 ], [ 1757390.689500000327826, 5921190.484000000171363 ], [ 1757390.419800000265241, 5921183.535899999551475 ], [ 1757391.254599999636412, 5921171.182799999602139 ], [ 1757393.294099999591708, 5921161.19539999961853 ], [ 1757395.136400000192225, 5921155.173899999819696 ], [ 1757397.544800000265241, 5921149.700400000438094 ], [ 1757398.987300000153482, 5921145.946600000374019 ], [ 1757402.2835, 5921147.802000000141561 ], [ 1757410.696700000204146, 5921133.0005 ], [ 1757413.733199999667704, 5921131.99349999986589 ], [ 1757429.229000000283122, 5921178.652200000360608 ], [ 1757433.72690000012517, 5921176.800099999643862 ], [ 1757418.645600000396371, 5921130.233300000429153 ], [ 1757428.170699999667704, 5921127.852099999785423 ], [ 1757432.668499999679625, 5921141.081299999728799 ], [ 1757437.166500000283122, 5921139.2292 ], [ 1757432.139399999752641, 5921123.354100000113249 ], [ 1757441.012400000356138, 5921120.107900000177324 ], [ 1757442.722799999639392, 5921123.88329999987036 ], [ 1757445.315499999560416, 5921122.67339999973774 ], [ 1757451.454, 5921138.435399999842048 ], [ 1757454.364500000141561, 5921137.377100000157952 ], [ 1757449.33739999961108, 5921122.295800000429153 ], [ 1757451.551699999719858, 5921121.172799999825656 ], [ 1757451.71860000025481, 5921118.0625 ], [ 1757467.32909999974072, 5921112.506199999712408 ], [ 1757468.916600000113249, 5921114.887500000186265 ], [ 1757471.500099999830127, 5921113.204300000332296 ], [ 1757476.0603, 5921126.793700000271201 ], [ 1757479.3279, 5921125.642799999564886 ], [ 1757475.5312, 5921113.035299999639392 ], [ 1757477.101700000464916, 5921111.65639999974519 ], [ 1757476.0603, 5921108.272900000214577 ], [ 1757486.379099999554455, 5921103.5104 ], [ 1757491.935399999842048, 5921105.097799999639392 ], [ 1757498.0208, 5921103.5104 ], [ 1757504.6354, 5921105.627000000327826 ], [ 1757500.29619999974966, 5921134.10950000025332 ], [ 1757509.159799999557436, 5921135.36629999987781 ], [ 1757513.3931, 5921137.747499999590218 ], [ 1757506.2494, 5921163.676699999719858 ], [ 1757508.340900000184774, 5921166.476800000295043 ], [ 1757506.7785, 5921170.5559 ], [ 1757512.334800000302494, 5921175.8476 ], [ 1757510.482699999585748, 5921211.301799999549985 ], [ 1757513.657700000330806, 5921215.006 ], [ 1757520.8015, 5921215.270499999634922 ], [ 1757523.711799999698997, 5921212.624699999578297 ], [ 1757524.0598, 5921203.546500000171363 ], [ 1757524.505599999800324, 5921178.4934 ], [ 1757531.91399999987334, 5921176.64130000025034 ], [ 1757528.474399999715388, 5921136.160000000149012 ], [ 1757535.618200000375509, 5921135.630800000391901 ], [ 1757533.468100000172853, 5921125.722 ], [ 1757529.526499999687076, 5921106.722400000318885 ], [ 1757560.429999999701977, 5921095.715699999593198 ], [ 1757563.816599999554455, 5921103.124099999666214 ], [ 1757557.659400000236928, 5921105.451999999582767 ], [ 1757557.254999999888241, 5921126.619099999777973 ], [ 1757560.535799999721348, 5921129.688299999572337 ], [ 1757569.849100000225008, 5921128.8416 ], [ 1757566.462500000372529, 5921159.745000000111759 ], [ 1757582.549200000241399, 5921163.554999999701977 ], [ 1757582.760800000280142, 5921168.21169999986887 ], [ 1757564.9808, 5921167.153400000184774 ], [ 1757564.769100000150502, 5921172.02170000039041 ], [ 1757577.8925, 5921174.138399999588728 ], [ 1757576.410799999721348, 5921203.136699999682605 ], [ 1757575.5642, 5921212.238400000147521 ], [ 1757584.242499999701977, 5921212.238400000147521 ], [ 1757586.9413, 5921205.179399999789894 ], [ 1757666.845599999651313, 5921431.13399999961257 ], [ 1757680.656899999827147, 5921427.190100000239909 ], [ 1757746.129499999806285, 5921402.018299999646842 ], [ 1757665.681400000117719, 5921171.312599999830127 ], [ 1757642.927199999801815, 5921106.119199999608099 ], [ 1757642.033200000412762, 5921087.100499999709427 ], [ 1757643.796799999661744, 5921071.208200000226498 ], [ 1757652.205299999564886, 5921067.7369 ], [ 1757665.0148, 5921085.0888 ], [ 1757670.1897, 5921082.9233 ], [ 1757657.920300000347197, 5921066.043499999679625 ], [ 1757667.868599999696016, 5921062.6568 ], [ 1757678.518400000408292, 5921079.394000000320375 ], [ 1757684.0219, 5921077.4002 ], [ 1757672.948699999600649, 5921059.481800000183284 ], [ 1757730.239799999631941, 5921041.031499999575317 ], [ 1757811.860399999655783, 5921266.894399999640882 ], [ 1757814.506299999542534, 5921269.275700000114739 ], [ 1757879.064799999818206, 5921245.727699999697506 ], [ 1757880.387699999846518, 5921240.7006 ], [ 1757877.955400000326335, 5921230.8849 ], [ 1757815.294800000265241, 5921050.380199999548495 ], [ 1757812.648900000378489, 5921025.5093 ], [ 1757817.411399999633431, 5921009.105100000277162 ], [ 1757859.2039, 5920994.360500000417233 ], [ 1757901.216900000348687, 5921115.02350000012666 ], [ 1757933.604500000365078, 5921213.153900000266731 ], [ 1757969.930700000375509, 5921201.121100000105798 ], [ 1757935.971099999733269, 5921102.905299999751151 ], [ 1757897.264899999834597, 5920991.668399999849498 ], [ 1757942.747899999842048, 5920975.9402 ], [ 1758099.19579999987036, 5921425.073599999770522 ], [ 1758107.516099999658763, 5921430.522699999623001 ], [ 1758116.776600000448525, 5921433.168600000441074 ], [ 1758126.037100000306964, 5921432.837899999693036 ], [ 1758119.743599999696016, 5921412.630199999548495 ], [ 1758135.339700000360608, 5921411.746899999678135 ], [ 1758160.2281, 5921409.198300000280142 ], [ 1758189.809000000357628, 5921406.262799999676645 ], [ 1758220.050300000235438, 5921402.304999999701977 ], [ 1758312.135900000110269, 5921392.102 ], [ 1758388.639399999752641, 5921382.820299999788404 ], [ 1758405.966799999587238, 5921404.395100000314415 ], [ 1758418.917600000277162, 5921404.193099999800324 ], [ 1758425.810499999672174, 5921394.8701 ], [ 1758294.047799999825656, 5921211.989699999801815 ], [ 1758314.30489999987185, 5921197.564600000157952 ], [ 1758367.661799999885261, 5921244.6656 ], [ 1758377.074400000274181, 5921243.715599999763072 ], [ 1758377.835199999623001, 5921243.4572 ], [ 1758410.104799999855459, 5921205.8163 ], [ 1758410.989400000311434, 5921205.1765 ], [ 1758410.0592, 5921200.488099999725819 ], [ 1758410.182099999859929, 5921199.979000000283122 ], [ 1758310.7166, 5921112.3739 ], [ 1758327.3854, 5921094.117600000463426 ], [ 1758282.0203, 5921053.850599999539554 ], [ 1758359.269100000150502, 5921027.006799999624491 ], [ 1758359.3668, 5921027.221400000154972 ], [ 1758455.011, 5921049.020999999716878 ], [ 1758473.403400000184774, 5921058.558199999853969 ], [ 1758726.086799999698997, 5921271.8915 ], [ 1758731.113900000229478, 5921272.949900000356138 ], [ 1758789.6398, 5921204.846 ], [ 1758790.698099999688566, 5921199.28969999961555 ], [ 1758541.32120000012219, 5920977.716900000348687 ], [ 1758544.17339999973774, 5920952.2078 ], [ 1758648.9156, 5920915.724600000306964 ], [ 1758693.254999999888241, 5920918.2933 ], [ 1758859.273699999786913, 5921067.565899999812245 ], [ 1758885.732599999755621, 5921058.8059 ], [ 1758889.047600000165403, 5921054.4046 ], [ 1758895.6617, 5921049.262299999594688 ], [ 1758932.7034, 5920850.162899999879301 ], [ 1758945.271200000308454, 5920834.287899999879301 ], [ 1758959.613599999807775, 5920828.0285 ], [ 1759005.689299999736249, 5920812.167000000365078 ], [ 1759048.378100000321865, 5920797.3229 ], [ 1759094.155600000172853, 5920781.9819 ], [ 1758981.244400000199676, 5921400.750900000333786 ], [ 1759013.504200000315905, 5921406.829300000332296 ], [ 1759017.360100000165403, 5921382.097799999639392 ], [ 1759218.973000000230968, 5921355.5071 ], [ 1759218.576100000180304, 5921345.585199999623001 ], [ 1759162.2198, 5921349.950799999758601 ], [ 1759190.0011, 5921303.5164 ], [ 1759211.1678, 5921279.1217 ], [ 1759228.101099999621511, 5921279.650899999774992 ], [ 1759252.442900000140071, 5921259.542500000447035 ], [ 1759272.551199999637902, 5921245.254999999888241 ], [ 1759303.772099999710917, 5921242.6091 ], [ 1759330.759700000286102, 5921246.84250000026077 ], [ 1759375.209800000302494, 5921240.492499999701977 ], [ 1759392.3783, 5921238.59360000025481 ], [ 1759393.856800000183284, 5921240.541500000283122 ], [ 1759396.837600000202656, 5921242.918100000359118 ], [ 1759397.9222, 5921243.511900000274181 ], [ 1759400.062400000169873, 5921243.795599999837577 ], [ 1759402.3574, 5921243.6047 ], [ 1759404.366899999789894, 5921243.2637 ], [ 1759408.70299999974668, 5921238.5323 ], [ 1759411.511699999682605, 5921234.4972 ], [ 1759417.7676, 5921226.219100000336766 ], [ 1759421.301599999889731, 5921219.948900000192225 ], [ 1759424.119400000199676, 5921215.68059999961406 ], [ 1759425.489799999631941, 5921212.17 ], [ 1759429.066200000233948, 5921197.355100000277162 ], [ 1759432.349499999545515, 5921178.6464 ], [ 1759434.2253, 5921167.8218 ], [ 1759437.752899999730289, 5921148.814399999566376 ], [ 1759443.101300000213087, 5921125.264999999664724 ], [ 1759447.098199999891222, 5921108.463000000454485 ], [ 1759451.547899999655783, 5921088.210199999623001 ], [ 1759452.380800000391901, 5921087.909699999727309 ], [ 1759453.3553, 5921087.3902000002563 ], [ 1759453.397099999710917, 5921087.08600000012666 ], [ 1759453.440100000239909, 5921086.759700000286102 ], [ 1759453.502899999730289, 5921085.191800000146031 ], [ 1759454.29079999960959, 5921081.296299999579787 ], [ 1759454.018799999728799, 5921080.185999999754131 ], [ 1759453.685499999672174, 5921078.743900000117719 ], [ 1759456.805100000463426, 5921059.237300000153482 ], [ 1759462.87459999974817, 5921026.0077 ], [ 1759467.839700000360608, 5921003.510599999688566 ], [ 1759472.114799999631941, 5920980.0554 ], [ 1759472.947999999858439, 5920978.258500000461936 ], [ 1759474.621399999596179, 5920975.291600000113249 ], [ 1759474.879499999806285, 5920974.706000000238419 ], [ 1759475.20380000025034, 5920973.284900000318885 ], [ 1759474.949099999852479, 5920971.3585 ], [ 1759474.487200000323355, 5920969.872499999590218 ], [ 1759466.784, 5920949.033300000242889 ], [ 1759459.362200000323355, 5920930.595300000160933 ], [ 1759453.883399999700487, 5920915.729799999855459 ], [ 1759445.128100000321865, 5920890.781600000336766 ], [ 1759434.829800000414252, 5920862.586400000378489 ], [ 1759422.7676, 5920834.107900000177324 ], [ 1759415.569299999624491, 5920814.5817 ], [ 1759404.7528, 5920787.519000000320375 ], [ 1759395.2889, 5920761.629599999636412 ], [ 1759382.3679, 5920727.370000000111759 ], [ 1759382.222099999897182, 5920725.299200000241399 ], [ 1759382.282999999821186, 5920722.597400000318885 ], [ 1759382.269299999810755, 5920720.832999999634922 ], [ 1759382.704400000162423, 5920719.2138 ], [ 1759382.753100000321865, 5920719.03899999987334 ], [ 1759399.949699999764562, 5920696.113199999555945 ], [ 1759402.994699999690056, 5920692.401200000196695 ], [ 1759406.070000000298023, 5920688.716199999675155 ], [ 1759409.17989999987185, 5920685.0603 ], [ 1759412.623700000345707, 5920679.694500000216067 ], [ 1759413.549200000241399, 5920678.310200000181794 ], [ 1759414.494599999859929, 5920676.953300000168383 ], [ 1759415.46889999974519, 5920675.632799999788404 ], [ 1759416.4737, 5920674.354299999773502 ], [ 1759417.518199999816716, 5920673.130599999800324 ], [ 1759418.60840000025928, 5920671.967000000178814 ], [ 1759419.171799999661744, 5920671.409 ], [ 1759419.748999999836087, 5920670.8728 ], [ 1759420.341400000266731, 5920670.3531 ], [ 1759420.947499999776483, 5920669.857099999673665 ], [ 1759421.57050000037998, 5920669.381099999882281 ], [ 1759422.208700000308454, 5920668.9271 ], [ 1759422.865199999883771, 5920668.498599999584258 ], [ 1759423.54, 5920668.0938 ], [ 1759424.233099999837577, 5920667.714599999599159 ], [ 1759424.963700000196695, 5920667.355000000447035 ], [ 1759425.693400000222027, 5920667.0269 ], [ 1759426.372399999760091, 5920666.921699999831617 ], [ 1759427.205, 5920666.9265 ], [ 1759431.9994, 5920666.688799999654293 ], [ 1759434.13190000038594, 5920666.5674 ], [ 1759435.726099999621511, 5920666.439500000327826 ], [ 1759437.175900000147521, 5920666.216300000436604 ], [ 1759437.9709, 5920666.114500000141561 ], [ 1759438.766800000332296, 5920666.068199999630451 ], [ 1759439.282800000160933, 5920666.073300000280142 ], [ 1759439.2884, 5920665.499800000339746 ], [ 1759439.352, 5920664.927000000141561 ], [ 1759439.401399999856949, 5920662.567699999548495 ], [ 1759439.4978, 5920660.166799999773502 ], [ 1759439.585199999623001, 5920658.568799999542534 ], [ 1759439.786299999803305, 5920656.043800000101328 ], [ 1759439.832299999892712, 5920655.247600000351667 ], [ 1759439.855700000189245, 5920654.27419999986887 ], [ 1759440.0866, 5920654.2199 ], [ 1759440.603000000119209, 5920654.167700000107288 ], [ 1759442.962100000120699, 5920653.997700000181794 ], [ 1759444.560499999672174, 5920653.934500000439584 ], [ 1759445.8761, 5920653.932099999859929 ], [ 1759446.044599999673665, 5920654.2785 ], [ 1759446.152599999681115, 5920654.966400000266731 ], [ 1759446.326399999670684, 5920655.590300000272691 ], [ 1759446.70990000013262, 5920656.700299999676645 ], [ 1759452.437699999660254, 5920674.794599999673665 ], [ 1759452.442300000227988, 5920674.875900000333786 ], [ 1759453.1305, 5920676.856999999843538 ], [ 1759454.4825, 5920680.619900000281632 ], [ 1759456.444899999536574, 5920685.866100000217557 ], [ 1759457.879599999636412, 5920689.601599999703467 ], [ 1759462.816399999894202, 5920702.285299999639392 ], [ 1759463.96059999987483, 5920705.275299999862909 ], [ 1759465.3613, 5920709.0225 ], [ 1759466.9243, 5920713.416000000201166 ], [ 1759468.768699999898672, 5920718.705 ], [ 1759471.099399999715388, 5920725.520200000144541 ], [ 1759473.144299999810755, 5920731.587899999693036 ], [ 1759473.300499999895692, 5920731.9106 ], [ 1759473.614799999631941, 5920732.663099999539554 ], [ 1759473.76549999974668, 5920733.4852 ], [ 1759473.677199999801815, 5920734.324799999594688 ], [ 1759473.452100000344217, 5920735.083700000308454 ], [ 1759473.119400000199676, 5920735.8169 ], [ 1759472.741899999789894, 5920736.536100000143051 ], [ 1759471.658300000242889, 5920739.244099999777973 ], [ 1759469.330400000326335, 5920745.208700000308454 ], [ 1759468.039900000207126, 5920748.303399999625981 ], [ 1759467.446399999782443, 5920749.790699999779463 ], [ 1759466.911799999885261, 5920750.699699999764562 ], [ 1759466.5274, 5920751.446700000204146 ], [ 1759466.2873, 5920752.200299999676645 ], [ 1759466.2823, 5920752.9644 ], [ 1759466.4194, 5920753.4594 ], [ 1759467.215599999763072, 5920753.7423 ], [ 1759467.947100000455976, 5920754.0653 ], [ 1759468.674499999731779, 5920754.403099999763072 ], [ 1759468.9858, 5920754.595200000330806 ], [ 1759469.730700000189245, 5920754.836500000208616 ], [ 1759470.0148, 5920754.768299999646842 ], [ 1759470.250099999830127, 5920754.630699999630451 ], [ 1759470.641800000332296, 5920753.951899999752641 ], [ 1759470.881099999882281, 5920753.078099999576807 ], [ 1759474.17989999987185, 5920746.956600000150502 ], [ 1759476.1201, 5920743.31319999974221 ], [ 1759477.2335, 5920741.165199999697506 ], [ 1759479.029299999587238, 5920737.589300000108778 ], [ 1759479.6119, 5920736.942099999636412 ], [ 1759480.09389999974519, 5920736.246799999848008 ], [ 1759480.150100000202656, 5920735.516900000162423 ], [ 1759475.286899999715388, 5920721.927299999631941 ], [ 1759472.025600000284612, 5920712.893199999816716 ], [ 1759469.581199999898672, 5920706.285400000400841 ], [ 1759464.553299999795854, 5920692.785799999721348 ], [ 1759462.895999999716878, 5920688.279400000348687 ], [ 1759461.261, 5920683.7652000002563 ], [ 1759457.134100000374019, 5920674.240500000305474 ], [ 1759455.888799999840558, 5920671.248700000345707 ], [ 1759454.9978, 5920668.997600000351667 ], [ 1759454.158599999733269, 5920666.7363 ], [ 1759453.3816, 5920664.4627 ], [ 1759452.680200000293553, 5920662.176599999889731 ], [ 1759452.259100000374019, 5920660.645499999634922 ], [ 1759452.063299999572337, 5920659.876000000163913 ], [ 1759451.707299999892712, 5920658.332600000314415 ], [ 1759451.39879999961704, 5920656.780899999663234 ], [ 1759451.1392, 5920655.220800000242889 ], [ 1759450.934299999848008, 5920653.650500000454485 ], [ 1759450.670599999837577, 5920652.18680000025779 ], [ 1759450.424499999731779, 5920650.56180000025779 ], [ 1759450.237999999895692, 5920648.935600000433624 ], [ 1759450.1722999997437, 5920648.122999999672174 ], [ 1759450.127299999818206, 5920647.3136 ], [ 1759450.104799999855459, 5920646.505699999630451 ], [ 1759450.107599999755621, 5920645.7029 ], [ 1759450.135800000280142, 5920644.903300000354648 ], [ 1759450.192300000227988, 5920644.10869999974966 ], [ 1759450.278599999845028, 5920643.320899999700487 ], [ 1759450.39919999986887, 5920642.538099999539554 ], [ 1759450.551199999637902, 5920641.763899999670684 ], [ 1759450.740600000135601, 5920640.998200000263751 ], [ 1759450.884399999864399, 5920640.50719999987632 ], [ 1759451.139600000344217, 5920639.760599999688566 ], [ 1759451.427500000223517, 5920639.019100000150502 ], [ 1759451.739299999549985, 5920638.2845 ], [ 1759452.41509999986738, 5920636.8235 ], [ 1759453.471300000324845, 5920634.6376 ], [ 1759453.691399999894202, 5920634.082299999892712 ], [ 1759453.9836, 5920633.335099999792874 ], [ 1759454.277300000190735, 5920632.58600000012666 ], [ 1759454.5756, 5920631.842299999669194 ], [ 1759454.878399999812245, 5920631.100499999709427 ], [ 1759455.191700000315905, 5920630.365799999795854 ], [ 1759455.518500000238419, 5920629.638299999758601 ], [ 1759455.858799999579787, 5920628.919800000265241 ], [ 1759456.062599999830127, 5920628.525600000284612 ], [ 1759456.441999999806285, 5920627.828599999658763 ], [ 1759456.837899999693036, 5920627.142300000414252 ], [ 1759457.252000000327826, 5920626.466799999587238 ], [ 1759457.68099999986589, 5920625.800300000235438 ], [ 1759458.125099999830127, 5920625.144500000402331 ], [ 1759458.582700000144541, 5920624.494099999777973 ], [ 1759459.053899999707937, 5920623.854500000365078 ], [ 1759459.538499999791384, 5920623.220200000330806 ], [ 1759460.033800000324845, 5920622.593100000172853 ], [ 1759460.537899999879301, 5920621.971400000154972 ], [ 1759461.05420000012964, 5920621.355100000277162 ], [ 1759461.576399999670684, 5920620.746000000275671 ], [ 1759466.635900000110269, 5920627.8277000002563 ], [ 1759470.935399999842048, 5920630.80420000012964 ], [ 1759476.888600000180304, 5920632.457899999804795 ], [ 1759482.511, 5920632.788599999621511 ], [ 1759486.810499999672174, 5920630.80420000012964 ], [ 1759491.030600000172853, 5920627.651100000366569 ], [ 1759494.337899999693036, 5920623.351599999703467 ], [ 1759495.660799999721348, 5920617.398400000296533 ], [ 1759495.46239999961108, 5920610.658200000412762 ], [ 1759491.572999999858439, 5920604.0965 ], [ 1759483.093100000172853, 5920597.223899999633431 ], [ 1759487.06180000025779, 5920593.916600000113249 ], [ 1759493.345700000412762, 5920594.578099999576807 ], [ 1759501.613900000229478, 5920601.192699999548495 ], [ 1759507.2363, 5920608.138000000268221 ], [ 1759514.181699999608099, 5920617.398400000296533 ], [ 1759519.1426, 5920629.6354 ], [ 1759522.780600000172853, 5920644.1875 ], [ 1759521.457700000144541, 5920659.07039999961853 ], [ 1759519.473299999721348, 5920668.9923 ], [ 1759515.173899999819696, 5920684.205900000408292 ], [ 1759508.9117, 5920703.895200000144541 ], [ 1759508.228500000201166, 5920708.67989999987185 ], [ 1759511.2051, 5920709.6721 ], [ 1759513.148199999704957, 5920704.431800000369549 ], [ 1759517.410799999721348, 5920691.198400000110269 ], [ 1759521.147099999710917, 5920676.3767 ], [ 1759525.4156, 5920659.965400000102818 ], [ 1759527.027900000102818, 5920647.786000000312924 ], [ 1759526.51630000025034, 5920638.2528 ], [ 1759524.420800000429153, 5920626.067099999636412 ], [ 1759520.200899999588728, 5920617.05460000038147 ], [ 1759515.976099999621511, 5920610.160299999639392 ], [ 1759510.690399999730289, 5920604.325299999676645 ], [ 1759503.822700000368059, 5920595.306900000199676 ], [ 1759498.009800000116229, 5920588.941700000315905 ], [ 1759493.345700000412762, 5920581.613400000147521 ], [ 1759493.6595, 5920581.222799999639392 ], [ 1759494.162200000137091, 5920580.601099999621511 ], [ 1759494.665, 5920579.979500000365078 ], [ 1759495.169200000353158, 5920579.357699999585748 ], [ 1759495.67339999973774, 5920578.735999999567866 ], [ 1759496.176099999807775, 5920578.114400000311434 ], [ 1759496.67879999987781, 5920577.492700000293553 ], [ 1759497.1831, 5920576.871000000275671 ], [ 1759497.687300000339746, 5920576.24930000025779 ], [ 1759498.190000000409782, 5920575.627600000239909 ], [ 1759498.692699999548495, 5920575.005900000222027 ], [ 1759499.196899999864399, 5920574.384200000204146 ], [ 1759499.6996, 5920573.760599999688566 ], [ 1759500.2039, 5920573.138899999670684 ], [ 1759500.7051, 5920572.517199999652803 ], [ 1759501.209300000220537, 5920571.895499999634922 ], [ 1759501.7105, 5920571.272099999710917 ], [ 1759502.213200000114739, 5920570.6486 ], [ 1759502.7144, 5920570.0269 ], [ 1759503.215599999763072, 5920569.403400000184774 ], [ 1759503.716900000348687, 5920568.779799999669194 ], [ 1759504.218100000172853, 5920568.15639999974519 ], [ 1759504.719200000166893, 5920567.531000000424683 ], [ 1759505.21889999974519, 5920566.907599999569356 ], [ 1759505.71860000025481, 5920566.282200000248849 ], [ 1759506.216799999587238, 5920565.656899999827147 ], [ 1759506.7165, 5920565.031600000336766 ], [ 1759507.214700000360608, 5920564.404500000178814 ], [ 1759507.711400000378489, 5920563.779199999757111 ], [ 1759508.207999999634922, 5920563.152099999599159 ], [ 1759508.245799999684095, 5920563.10329999960959 ], [ 1759508.730399999767542, 5920562.4671 ], [ 1759509.2165, 5920561.831000000238419 ], [ 1759509.6996, 5920561.193 ], [ 1759510.182699999772012, 5920560.554999999701977 ], [ 1759510.665699999779463, 5920559.915199999697506 ], [ 1759511.147300000302494, 5920559.275399999693036 ], [ 1759511.630400000140071, 5920558.637500000186265 ], [ 1759512.110500000417233, 5920557.997700000181794 ], [ 1759512.59360000025481, 5920557.357900000177324 ], [ 1759513.075199999846518, 5920556.718100000172853 ], [ 1759513.556800000369549, 5920556.080199999734759 ], [ 1759514.039800000376999, 5920555.440399999730289 ], [ 1759514.522900000214577, 5920554.802400000393391 ], [ 1759515.007500000298023, 5920554.16440000012517 ], [ 1759515.490600000135601, 5920553.528300000354648 ], [ 1759515.978199999779463, 5920552.892099999822676 ], [ 1759516.4644, 5920552.257799999788404 ], [ 1759516.951899999752641, 5920551.623499999754131 ], [ 1759517.441100000403821, 5920550.990899999625981 ], [ 1759517.933199999853969, 5920550.3602 ], [ 1759518.4254, 5920549.729500000365078 ], [ 1759518.920599999837577, 5920549.100499999709427 ], [ 1759519.4172, 5920548.473399999551475 ], [ 1759519.915500000119209, 5920547.849999999627471 ], [ 1759520.416600000113249, 5920547.224600000306964 ], [ 1759520.92090000025928, 5920546.6047 ], [ 1759521.426599999889731, 5920545.986700000241399 ], [ 1759521.935399999842048, 5920545.368599999696016 ], [ 1759522.447200000286102, 5920544.756 ], [ 1759522.962000000290573, 5920544.143299999646842 ], [ 1759523.2675, 5920543.7862 ], [ 1759523.789900000207126, 5920543.1826 ], [ 1759524.316700000315905, 5920542.579 ], [ 1759524.845099999569356, 5920541.979000000283122 ], [ 1759525.375, 5920541.380900000222027 ], [ 1759525.907999999821186, 5920540.7845 ], [ 1759526.4424, 5920540.1881 ], [ 1759526.978400000371039, 5920539.5954 ], [ 1759527.517300000414252, 5920539.0027 ], [ 1759528.056300000287592, 5920538.411799999885261 ], [ 1759528.596699999645352, 5920537.822700000368059 ], [ 1759529.138799999840558, 5920537.2335 ], [ 1759529.680800000205636, 5920536.644399999640882 ], [ 1759530.2242, 5920536.057099999859929 ], [ 1759530.767699999734759, 5920535.4698 ], [ 1759531.311300000175834, 5920534.882500000298023 ], [ 1759531.856300000101328, 5920534.295199999585748 ], [ 1759532.399799999780953, 5920533.707899999804795 ], [ 1759532.94469999987632, 5920533.122399999760091 ], [ 1759533.509100000374019, 5920531.926699999719858 ], [ 1759528.234400000423193, 5920531.732699999585748 ], [ 1759503.253999999724329, 5920530.818900000303984 ], [ 1759409.535799999721348, 5920540.551699999719858 ], [ 1759360.603799999691546, 5920545.6332 ], [ 1759225.345300000160933, 5920559.6798 ], [ 1759225.4951, 5920542.725999999791384 ], [ 1759188.399299999698997, 5920544.0614 ], [ 1759092.471400000154972, 5920540.00899999961257 ], [ 1759017.301699999719858, 5920538.061300000175834 ], [ 1759000.616100000217557, 5920467.838600000366569 ], [ 1758996.935700000263751, 5920453.0631 ], [ 1758996.580699999816716, 5920451.6381 ], [ 1758991.984199999831617, 5920440.97510000038892 ], [ 1758984.838200000114739, 5920432.455500000156462 ], [ 1758977.5718, 5920424.093399999663234 ], [ 1758972.1415, 5920417.498700000345707 ], [ 1758891.424700000323355, 5920320.565999999642372 ], [ 1758885.04619999974966, 5920312.385200000368059 ], [ 1758875.8278, 5920303.843100000172853 ], [ 1758866.9622, 5920296.369099999777973 ], [ 1758859.15749999973923, 5920291.7368 ], [ 1758850.523, 5920290.1129 ], [ 1758839.625900000333786, 5920289.9222 ], [ 1758830.740600000135601, 5920293.103000000119209 ], [ 1758788.778699999675155, 5920320.016900000162423 ], [ 1758763.86670000012964, 5920337.098199999891222 ], [ 1758732.234400000423193, 5920358.7873 ], [ 1758715.7993, 5920370.055200000293553 ], [ 1758664.087600000202656, 5920405.018899999558926 ], [ 1758615.929399999789894, 5920403.799999999813735 ], [ 1758553.1585, 5920378.565899999812245 ], [ 1758517.0927, 5920364.035699999891222 ], [ 1758502.871100000105798, 5920358.30599999986589 ], [ 1758475.887699999846518, 5920338.1486 ], [ 1758418.339700000360608, 5920295.7988 ], [ 1758392.353500000201166, 5920285.026700000278652 ], [ 1758393.205199999734759, 5920267.517900000326335 ], [ 1758382.390800000168383, 5920252.0296 ], [ 1758371.343500000424683, 5920237.126500000245869 ], [ 1758328.510499999858439, 5920169.037200000137091 ], [ 1758289.57799999974668, 5920190.203099999576807 ], [ 1758270.471, 5920200.590599999763072 ], [ 1758263.647599999792874, 5920186.182199999690056 ], [ 1758253.797500000335276, 5920166.974600000306964 ], [ 1758236.16509999986738, 5920141.507799999788404 ], [ 1758157.4282, 5920044.681599999777973 ], [ 1758140.2588, 5920023.2199 ], [ 1758132.180100000463426, 5920030.04839999973774 ], [ 1758122.752299999818206, 5920038.017199999652803 ] ] ] } }
]
}
